STARLINK-32104          
1 59695U 24086P   26067.99879832 -.00000399  00000+0 -49896-5 0  9993
2 59695  43.0055  60.5074 0000825 257.1270 102.9489 15.27576384104044
TEVEL2-2                
1 63219U 25052K   26068.64848259  .00020339  00000+0  69428-3 0  9991
2 63219  97.3987 324.7700 0004693 105.7930 254.3828 15.30343745 54855
